[{"OBJECT_NAME":"STARLINK-1993","OBJECT_ID":"2021-009AS","EPOCH":"2026-03-09T22:34:43.517280","MEAN_MOTION":15.68612589,"ECCENTRICITY":0.00017457,"INCLINATION":53.0469,"RA_OF_ASC_NODE":338.0743,"ARG_OF_PERICENTER":302.7069,"MEAN_ANOMALY":57.3778,"EPHEMERIS_TYPE":0,"CLASSIFICATION_TYPE":"U","NORAD_CAT_ID":47588,"ELEMENT_SET_NO":999,"REV_AT_EPOCH":28143,"BSTAR":0.0010228331,"MEAN_MOTION_DOT":0.00119587,"MEAN_MOTION_DDOT":0},{"OBJECT_NAME":"STARLINK-11084 [DTC]","OBJECT_ID":"2024-088K","EPOCH":"2026-03-09T22:34:29.428896","MEAN_MOTION":15.69705232,"ECCENTRICITY":8.972e-5,"INCLINATION":53.1574,"RA_OF_ASC_NODE":324.8826,"ARG_OF_PERICENTER":118.0533,"MEAN_ANOMALY":242.0576,"EPHEMERIS_TYPE":0,"CLASSIFICATION_TYPE":"U","NORAD_CAT_ID":59717,"ELEMENT_SET_NO":999,"REV_AT_EPOCH":10631,"BSTAR":-2.352319e-6,"MEAN_MOTION_DOT":-8.73e-6,"MEAN_MOTION_DDOT":0}]
